[{"OBJECT_NAME":"STARLINK-36301","OBJECT_ID":"2026-037A","EPOCH":"2026-03-10T04:00:01.999584","MEAN_MOTION":15.82008419,"ECCENTRICITY":0.0002175,"INCLINATION":42.9989,"RA_OF_ASC_NODE":195.6543,"ARG_OF_PERICENTER":262.0503,"MEAN_ANOMALY":209.5037,"EPHEMERIS_TYPE":0,"CLASSIFICATION_TYPE":"U","NORAD_CAT_ID":67932,"ELEMENT_SET_NO":999,"REV_AT_EPOCH":318,"BSTAR":-0.00011297,"MEAN_MOTION_DOT":-0.00024248,"MEAN_MOTION_DDOT":0},{"OBJECT_NAME":"STARLINK-36852","OBJECT_ID":"2026-037B","EPOCH":"2026-03-10T04:00:01.999584","MEAN_MOTION":15.82027464,"ECCENTRICITY":0.0001818,"INCLINATION":42.9988,"RA_OF_ASC_NODE":195.6433,"ARG_OF_PERICENTER":264.4866,"MEAN_ANOMALY":211.3234,"EPHEMERIS_TYPE":0,"CLASSIFICATION_TYPE":"U","NORAD_CAT_ID":67933,"ELEMENT_SET_NO":999,"REV_AT_EPOCH":327,"BSTAR":-0.00018702,"MEAN_MOTION_DOT":-0.00039755,"MEAN_MOTION_DDOT":0},{"OBJECT_NAME":"STARLINK-36861","OBJECT_ID":"2026-037C","EPOCH":"2026-03-10T04:00:01.999584","MEAN_MOTION":15.82000083,"ECCENTRICITY":0.0001923,"INCLINATION":42.9987,"RA_OF_ASC_NODE":195.6325,"ARG_OF_PERICENTER":244.3383,"MEAN_ANOMALY":235.7646,"EPHEMERIS_TYPE":0,"CLASSIFICATION_TYPE":"U","NORAD_CAT_ID":67934,"ELEMENT_SET_NO":999,"REV_AT_EPOCH":327,"BSTAR":-9.0541e-5,"MEAN_MOTION_DOT":-0.00019542,"MEAN_MOTION_DDOT":0},{"OBJECT_NAME":"STARLINK-36860","OBJECT_ID":"2026-037D","EPOCH":"2026-03-10T04:00:01.999584","MEAN_MOTION":15.82002362,"ECCENTRICITY":0.0001789,"INCLINATION":42.9988,"RA_OF_ASC_NODE":195.6222,"ARG_OF_PERICENTER":248.457,"MEAN_ANOMALY":235.9107,"EPHEMERIS_TYPE":0,"CLASSIFICATION_TYPE":"U","NORAD_CAT_ID":67935,"ELEMENT_SET_NO":999,"REV_AT_EPOCH":327,"BSTAR":2.5007e-5,"MEAN_MOTION_DOT":4.732e-5,"MEAN_MOTION_DDOT":0},{"OBJECT_NAME":"STARLINK-36848","OBJECT_ID":"2026-037E","EPOCH":"2026-03-10T04:00:01.999584","MEAN_MOTION":15.82018774,"ECCENTRICITY":0.0001662,"INCLINATION":42.9987,"RA_OF_ASC_NODE":195.6,"ARG_OF_PERICENTER":273.6794,"MEAN_ANOMALY":219.2306,"EPHEMERIS_TYPE":0,"CLASSIFICATION_TYPE":"U","NORAD_CAT_ID":67936,"ELEMENT_SET_NO":999,"REV_AT_EPOCH":327,"BSTAR":-0.00019534,"MEAN_MOTION_DOT":-0.00041474,"MEAN_MOTION_DDOT":0},{"OBJECT_NAME":"STARLINK-36370","OBJECT_ID":"2026-037F","EPOCH":"2026-03-10T04:00:01.999584","MEAN_MOTION":15.82001506,"ECCENTRICITY":0.0002052,"INCLINATION":42.9988,"RA_OF_ASC_NODE":195.6121,"ARG_OF_PERICENTER":293.1048,"MEAN_ANOMALY":195.5347,"EPHEMERIS_TYPE":0,"CLASSIFICATION_TYPE":"U","NORAD_CAT_ID":67937,"ELEMENT_SET_NO":999,"REV_AT_EPOCH":327,"BSTAR":-1.225e-5,"MEAN_MOTION_DOT":-3.111e-5,"MEAN_MOTION_DDOT":0},{"OBJECT_NAME":"STARLINK-36371","OBJECT_ID":"2026-037G","EPOCH":"2026-03-10T04:00:01.999584","MEAN_MOTION":15.82010594,"ECCENTRICITY":0.0001764,"INCLINATION":42.9985,"RA_OF_ASC_NODE":195.5888,"ARG_OF_PERICENTER":250.0167,"MEAN_ANOMALY":247.1805,"EPHEMERIS_TYPE":0,"CLASSIFICATION_TYPE":"U","NORAD_CAT_ID":67938,"ELEMENT_SET_NO":999,"REV_AT_EPOCH":327,"BSTAR":-0.00021658,"MEAN_MOTION_DOT":-0.00045886,"MEAN_MOTION_DDOT":0},{"OBJECT_NAME":"STARLINK-36246","OBJECT_ID":"2026-037H","EPOCH":"2026-03-10T04:00:01.999584","MEAN_MOTION":15.82022399,"ECCENTRICITY":0.0002043,"INCLINATION":42.9987,"RA_OF_ASC_NODE":195.5783,"ARG_OF_PERICENTER":274.7577,"MEAN_ANOMALY":226.6852,"EPHEMERIS_TYPE":0,"CLASSIFICATION_TYPE":"U","NORAD_CAT_ID":67939,"ELEMENT_SET_NO":999,"REV_AT_EPOCH":318,"BSTAR":-0.00014272,"MEAN_MOTION_DOT":-0.00030491,"MEAN_MOTION_DDOT":0},{"OBJECT_NAME":"STARLINK-36907","OBJECT_ID":"2026-037J","EPOCH":"2026-03-10T04:00:01.999584","MEAN_MOTION":15.82019489,"ECCENTRICITY":0.0001435,"INCLINATION":42.9987,"RA_OF_ASC_NODE":195.5453,"ARG_OF_PERICENTER":274.487,"MEAN_ANOMALY":239.7854,"EPHEMERIS_TYPE":0,"CLASSIFICATION_TYPE":"U","NORAD_CAT_ID":67940,"ELEMENT_SET_NO":999,"REV_AT_EPOCH":327,"BSTAR":-0.00016931,"MEAN_MOTION_DOT":-0.00036041,"MEAN_MOTION_DDOT":0},{"OBJECT_NAME":"STARLINK-36927","OBJECT_ID":"2026-037K","EPOCH":"2026-03-10T04:00:01.999584","MEAN_MOTION":15.82005345,"ECCENTRICITY":0.0001725,"INCLINATION":42.9987,"RA_OF_ASC_NODE":195.5237,"ARG_OF_PERICENTER":278.3332,"MEAN_ANOMALY":244.4921,"EPHEMERIS_TYPE":0,"CLASSIFICATION_TYPE":"U","NORAD_CAT_ID":67941,"ELEMENT_SET_NO":999,"REV_AT_EPOCH":327,"BSTAR":-0.00011467,"MEAN_MOTION_DOT":-0.00024598,"MEAN_MOTION_DDOT":0},{"OBJECT_NAME":"STARLINK-36914","OBJECT_ID":"2026-037L","EPOCH":"2026-03-10T04:00:01.999584","MEAN_MOTION":15.82002734,"ECCENTRICITY":0.0002055,"INCLINATION":42.9986,"RA_OF_ASC_NODE":195.5671,"ARG_OF_PERICENTER":259.8638,"MEAN_ANOMALY":245.8655,"EPHEMERIS_TYPE":0,"CLASSIFICATION_TYPE":"U","NORAD_CAT_ID":67942,"ELEMENT_SET_NO":999,"REV_AT_EPOCH":327,"BSTAR":-9.0239e-5,"MEAN_MOTION_DOT":-0.00019482,"MEAN_MOTION_DDOT":0},{"OBJECT_NAME":"STARLINK-36851","OBJECT_ID":"2026-037M","EPOCH":"2026-03-10T04:00:01.999584","MEAN_MOTION":15.82004367,"ECCENTRICITY":0.0001743,"INCLINATION":42.9989,"RA_OF_ASC_NODE":195.5563,"ARG_OF_PERICENTER":263.098,"MEAN_ANOMALY":246.9086,"EPHEMERIS_TYPE":0,"CLASSIFICATION_TYPE":"U","NORAD_CAT_ID":67943,"ELEMENT_SET_NO":999,"REV_AT_EPOCH":327,"BSTAR":-9.0788e-5,"MEAN_MOTION_DOT":-0.00019597,"MEAN_MOTION_DDOT":0},{"OBJECT_NAME":"STARLINK-36892","OBJECT_ID":"2026-037N","EPOCH":"2026-03-10T04:00:01.999584","MEAN_MOTION":15.82037022,"ECCENTRICITY":0.0002033,"INCLINATION":42.9986,"RA_OF_ASC_NODE":195.5351,"ARG_OF_PERICENTER":280.4619,"MEAN_ANOMALY":238.0891,"EPHEMERIS_TYPE":0,"CLASSIFICATION_TYPE":"U","NORAD_CAT_ID":67944,"ELEMENT_SET_NO":999,"REV_AT_EPOCH":327,"BSTAR":-0.00039976,"MEAN_MOTION_DOT":-0.00083987,"MEAN_MOTION_DDOT":0},{"OBJECT_NAME":"STARLINK-36908","OBJECT_ID":"2026-037P","EPOCH":"2026-03-10T04:00:01.999584","MEAN_MOTION":15.82016292,"ECCENTRICITY":0.0001728,"INCLINATION":42.9987,"RA_OF_ASC_NODE":195.513,"ARG_OF_PERICENTER":268.3125,"MEAN_ANOMALY":258.7843,"EPHEMERIS_TYPE":0,"CLASSIFICATION_TYPE":"U","NORAD_CAT_ID":67945,"ELEMENT_SET_NO":999,"REV_AT_EPOCH":327,"BSTAR":-7.5648e-5,"MEAN_MOTION_DOT":-0.00016432,"MEAN_MOTION_DDOT":0},{"OBJECT_NAME":"STARLINK-36909","OBJECT_ID":"2026-037Q","EPOCH":"2026-03-10T04:00:01.999584","MEAN_MOTION":15.82022366,"ECCENTRICITY":0.0001782,"INCLINATION":42.9987,"RA_OF_ASC_NODE":195.5024,"ARG_OF_PERICENTER":279.2915,"MEAN_ANOMALY":252.0777,"EPHEMERIS_TYPE":0,"CLASSIFICATION_TYPE":"U","NORAD_CAT_ID":67946,"ELEMENT_SET_NO":999,"REV_AT_EPOCH":327,"BSTAR":-0.00019873,"MEAN_MOTION_DOT":-0.00042189,"MEAN_MOTION_DDOT":0},{"OBJECT_NAME":"STARLINK-36920","OBJECT_ID":"2026-037R","EPOCH":"2026-03-10T04:00:01.999584","MEAN_MOTION":15.82027867,"ECCENTRICITY":0.0001583,"INCLINATION":42.9988,"RA_OF_ASC_NODE":195.4911,"ARG_OF_PERICENTER":275.643,"MEAN_ANOMALY":259.9968,"EPHEMERIS_TYPE":0,"CLASSIFICATION_TYPE":"U","NORAD_CAT_ID":67947,"ELEMENT_SET_NO":999,"REV_AT_EPOCH":327,"BSTAR":-0.00022372,"MEAN_MOTION_DOT":-0.00047409,"MEAN_MOTION_DDOT":0}]
